start=new Date('2021-09-20T00:00:00.000Z').valueOf();
sats=[{"TIME_SYSTEM":"UTC","EPOCH":"2021-09-19T18:36:49.468320","PERIOD":"95.592","LAUNCH_DATE":"2021-04-07","FILE":"3120378","MEAN_MOTION_DOT":"0.00000688","REF_FRAME":"TEME","APOAPSIS":"547.395","ELEMENT_SET_NO":"999","ARG_OF_PERICENTER":"114.3975","CENTER_NAME":"EARTH","ECCENTRICITY":"0.00002710","MEAN_ELEMENT_THEORY":"SGP4","INCLINATION":"53.0549","MEAN_MOTION":"15.06402154","OBJECT_NAME":"STARLINK-2463","SITE":"AFETR","BSTAR":"0.00006507000000","SEMIMAJOR_AXIS":"6925.342","RA_OF_ASC_NODE":"282.5553","PERIAPSIS":"547.019","OBJECT_ID":"2021-027AG","RCS_SIZE":"LARGE","TLE_LINE2":"2 48122  53.0549 282.5553 0000271 114.3975 245.7043 15.06402154 26668","NORAD_CAT_ID":"48122","OBJECT_TYPE":"PAYLOAD","DECAY_DATE":null,"MEAN_MOTION_DDOT":"0.0000000000000","GP_ID":"185056669","MEAN_ANOMALY":"245.7043","COUNTRY_CODE":"US","TLE_LINE1":"1 48122U 21027AG  21262.77557255  .00000688  00000-0  65070-4 0  9999","CLASSIFICATION_TYPE":"U","REV_AT_EPOCH":"2666","EPHEMERIS_TYPE":"0"},{"BSTAR":"0.00006544700000","SITE":"AFETR","SEMIMAJOR_AXIS":"6925.381","RA_OF_ASC_NODE":"277.5219","RCS_SIZE":"LARGE","TLE_LINE2":"2 48123  53.0547 277.5219 0000404  86.6010 273.5025 15.06389553 26733","OBJECT_ID":"2021-027AH","PERIAPSIS":"546.966","OBJECT_NAME":"STARLINK-2464","GP_ID":"185056916","MEAN_MOTION_DDOT":"0.0000000000000","DECAY_DATE":null,"MEAN_ANOMALY":"273.5025","NORAD_CAT_ID":"48123","OBJECT_TYPE":"PAYLOAD","TLE_LINE1":"1 48123U 21027AH  21262.78253365  .00000694  00000-0  65447-4 0  9991","COUNTRY_CODE":"US","REV_AT_EPOCH":"2673","EPHEMERIS_TYPE":"0","CLASSIFICATION_TYPE":"U","TIME_SYSTEM":"UTC","PERIOD":"95.593","EPOCH":"2021-09-19T18:46:50.907360","REF_FRAME":"TEME","MEAN_MOTION_DOT":"0.00000694","APOAPSIS":"547.525","LAUNCH_DATE":"2021-04-07","FILE":"3120378","ARG_OF_PERICENTER":"86.6010","CENTER_NAME":"EARTH","ELEMENT_SET_NO":"999","MEAN_MOTION":"15.06389553","ECCENTRICITY":"0.00004040","INCLINATION":"53.0547","MEAN_ELEMENT_THEORY":"SGP4"},{"DECAY_DATE":null,"MEAN_MOTION_DDOT":"0.0000000000000","GP_ID":"185057166","MEAN_ANOMALY":"262.9087","NORAD_CAT_ID":"48124","OBJECT_TYPE":"PAYLOAD","RA_OF_ASC_NODE":"287.5335","SITE":"AFETR","SEMIMAJOR_AXIS":"6925.369","BSTAR":"-0.00005959700000","PERIAPSIS":"546.806","OBJECT_ID":"2021-027AJ","RCS_SIZE":"LARGE","TLE_LINE2":"2 48124  53.0560 287.5335 0000618  97.1972 262.9087 15.06393254 26586","OBJECT_NAME":"STARLINK-2465","REV_AT_EPOCH":"2658","EPHEMERIS_TYPE":"0","CLASSIFICATION_TYPE":"U","TLE_LINE1":"1 48124U 21027AJ  21262.78159016 -.00001168  00000-0 -59597-4 0  9998","COUNTRY_CODE":"US","MEAN_MOTION_DOT":"-0.00001168","REF_FRAME":"TEME","APOAPSIS":"547.662","LAUNCH_DATE":"2021-04-07","FILE":"3120378","TIME_SYSTEM":"UTC","EPOCH":"2021-09-19T18:45:29.389824","PERIOD":"95.593","MEAN_MOTION":"15.06393254","ECCENTRICITY":"0.00006180","MEAN_ELEMENT_THEORY":"SGP4","INCLINATION":"53.0560","CENTER_NAME":"EARTH","ARG_OF_PERICENTER":"97.1972","ELEMENT_SET_NO":"999"},{"OBJECT_NAME":"STARLINK-2466","SEMIMAJOR_AXIS":"6925.362","SITE":"AFETR","BSTAR":"-0.00005277400000","RA_OF_ASC_NODE":"297.2720","PERIAPSIS":"546.858","OBJECT_ID":"2021-027AK","RCS_SIZE":"LARGE","TLE_LINE2":"2 48125  53.0557 297.2720 0000532 125.4200 234.6838 15.06395680 26465","NORAD_CAT_ID":"48125","OBJECT_TYPE":"PAYLOAD","DECAY_DATE":null,"GP_ID":"185057918","MEAN_MOTION_DDOT":"0.0000000000000","MEAN_ANOMALY":"234.6838","COUNTRY_CODE":"US","TLE_LINE1":"1 48125U 21027AK  21262.83869519 -.00001067  00000-0 -52774-4 0  9999","CLASSIFICATION_TYPE":"U","REV_AT_EPOCH":"2646","EPHEMERIS_TYPE":"0","TIME_SYSTEM":"UTC","EPOCH":"2021-09-19T20:07:43.264416","PERIOD":"95.592","LAUNCH_DATE":"2021-04-07","FILE":"3120378","MEAN_MOTION_DOT":"-0.00001067","REF_FRAME":"TEME","APOAPSIS":"547.595","ELEMENT_SET_NO":"999","CENTER_NAME":"EARTH","ARG_OF_PERICENTER":"125.4200","ECCENTRICITY":"0.00005320","MEAN_ELEMENT_THEORY":"SGP4","INCLINATION":"53.0557","MEAN_MOTION":"15.06395680"},{"TIME_SYSTEM":"UTC","PERIOD":"95.593","EPOCH":"2021-09-19T17:59:02.871456","REF_FRAME":"TEME","MEAN_MOTION_DOT":"0.00000631","APOAPSIS":"547.637","LAUNCH_DATE":"2021-04-07","FILE":"3120378","ARG_OF_PERICENTER":"57.7374","CENTER_NAME":"EARTH","ELEMENT_SET_NO":"999","MEAN_MOTION":"15.06388768","ECCENTRICITY":"0.00005620","INCLINATION":"53.0476","MEAN_ELEMENT_THEORY":"SGP4","BSTAR":"0.00006123700000","SITE":"AFETR","SEMIMAJOR_AXIS":"6925.383","RA_OF_ASC_NODE":"277.7014","TLE_LINE2":"2 48126  53.0476 277.7014 0000562  57.7374 302.3669 15.06388768 26731","RCS_SIZE":"LARGE","OBJECT_ID":"2021-027AL","PERIAPSIS":"546.859","OBJECT_NAME":"STARLINK-2467","GP_ID":"185056170","MEAN_MOTION_DDOT":"0.0000000000000","DECAY_DATE":null,"MEAN_ANOMALY":"302.3669","NORAD_CAT_ID":"48126","OBJECT_TYPE":"PAYLOAD","TLE_LINE1":"1 48126U 21027AL  21262.74933879  .00000631  00000-0  61237-4 0  9999","COUNTRY_CODE":"US","REV_AT_EPOCH":"2673","EPHEMERIS_TYPE":"0","CLASSIFICATION_TYPE":"U"},{"COUNTRY_CODE":"US","TLE_LINE1":"1 48127U 21027AM  21262.80646557  .00000793  00000-0  72134-4 0  9998","CLASSIFICATION_TYPE":"U","REV_AT_EPOCH":"2645","EPHEMERIS_TYPE":"0","OBJECT_NAME":"STARLINK-2468","SITE":"AFETR","SEMIMAJOR_AXIS":"6925.343","RA_OF_ASC_NODE":"297.4171","BSTAR":"0.00007213400000","OBJECT_ID":"2021-027AM","PERIAPSIS":"546.716","RCS_SIZE":"LARGE","TLE_LINE2":"2 48127  53.0559 297.4171 0000711  94.5099 265.5971 15.06401693 26454","NORAD_CAT_ID":"48127","OBJECT_TYPE":"PAYLOAD","DECAY_DATE":null,"MEAN_MOTION_DDOT":"0.0000000000000","GP_ID":"185056417","MEAN_ANOMALY":"265.5971","ELEMENT_SET_NO":"999","CENTER_NAME":"EARTH","ARG_OF_PERICENTER":"94.5099","ECCENTRICITY":"0.00007110","MEAN_ELEMENT_THEORY":"SGP4","INCLINATION":"53.0559","MEAN_MOTION":"15.06401693","TIME_SYSTEM":"UTC","EPOCH":"2021-09-19T19:21:18.625248","PERIOD":"95.592","LAUNCH_DATE":"2021-04-07","FILE":"3120378","MEAN_MOTION_DOT":"0.00000793","REF_FRAME":"TEME","APOAPSIS":"547.701"},{"TIME_SYSTEM":"UTC","EPOCH":"2021-09-19T21:49:07.851360","PERIOD":"91.536","MEAN_MOTION_DOT":"-0.00017067","REF_FRAME":"TEME","APOAPSIS":"352.709","LAUNCH_DATE":"2021-04-07","FILE":"3120378","ARG_OF_PERICENTER":"328.7864","CENTER_NAME":"EARTH","ELEMENT_SET_NO":"999","MEAN_MOTION":"15.73154045","ECCENTRICITY":"0.00041880","MEAN_ELEMENT_THEORY":"SGP4","INCLINATION":"53.0443","SEMIMAJOR_AXIS":"6728.026","SITE":"AFETR","BSTAR":"-0.00011754000000","RA_OF_ASC_NODE":"239.4661","PERIAPSIS":"347.073","OBJECT_ID":"2021-027AN","RCS_SIZE":"LARGE","TLE_LINE2":"2 48128  53.0443 239.4661 0004188 328.7864  31.2904 15.73154045 27265","OBJECT_NAME":"STARLINK-2469","DECAY_DATE":null,"MEAN_MOTION_DDOT":"0.0000000000000","GP_ID":"185057666","MEAN_ANOMALY":"31.2904","NORAD_CAT_ID":"48128","OBJECT_TYPE":"PAYLOAD","TLE_LINE1":"1 48128U 21027AN  21262.90911865 -.00017067  00000-0 -11754-3 0  9991","COUNTRY_CODE":"US","REV_AT_EPOCH":"2726","EPHEMERIS_TYPE":"0","CLASSIFICATION_TYPE":"U"},{"EPOCH":"2021-09-19T19:10:42.163968","PERIOD":"95.592","TIME_SYSTEM":"UTC","FILE":"3120378","LAUNCH_DATE":"2021-04-07","APOAPSIS":"547.478","MEAN_MOTION_DOT":"0.00000761","REF_FRAME":"TEME","ELEMENT_SET_NO":"999","ARG_OF_PERICENTER":"85.5032","CENTER_NAME":"EARTH","MEAN_ELEMENT_THEORY":"SGP4","INCLINATION":"53.0558","ECCENTRICITY":"0.00003770","MEAN_MOTION":"15.06398825","OBJECT_NAME":"STARLINK-2471","PERIAPSIS":"546.956","OBJECT_ID":"2021-027AP","TLE_LINE2":"2 48129  53.0558 297.4491 0000377  85.5032 274.6000 15.06398825 26451","RCS_SIZE":"LARGE","SITE":"AFETR","SEMIMAJOR_AXIS":"6925.352","BSTAR":"0.00006992900000","RA_OF_ASC_NODE":"297.4491","OBJECT_TYPE":"PAYLOAD","NORAD_CAT_ID":"48129","MEAN_ANOMALY":"274.6000","DECAY_DATE":null,"MEAN_MOTION_DDOT":"0.0000000000000","GP_ID":"185057419","COUNTRY_CODE":"US","TLE_LINE1":"1 48129U 21027AP  21262.79909912  .00000761  00000-0  69929-4 0  9998","CLASSIFICATION_TYPE":"U","EPHEMERIS_TYPE":"0","REV_AT_EPOCH":"2645"},{"OBJECT_NAME":"STARLINK-2472","OBJECT_ID":"2021-027AQ","PERIAPSIS":"546.556","TLE_LINE2":"2 48130  53.0564 303.6963 0000988  96.4618 263.6484 15.06391365 26347","RCS_SIZE":"LARGE","SITE":"AFETR","BSTAR":"0.00006086900000","SEMIMAJOR_AXIS":"6925.375","RA_OF_ASC_NODE":"303.6963","NORAD_CAT_ID":"48130","OBJECT_TYPE":"PAYLOAD","MEAN_ANOMALY":"263.6484","DECAY_DATE":null,"GP_ID":"185025125","MEAN_MOTION_DDOT":"0.0000000000000","COUNTRY_CODE":"US","TLE_LINE1":"1 48130U 21027AQ  21262.52308921  .00000625  00000-0  60869-4 0  9997","CLASSIFICATION_TYPE":"U","EPHEMERIS_TYPE":"0","REV_AT_EPOCH":"2634","EPOCH":"2021-09-19T12:33:14.907744","PERIOD":"95.593","TIME_SYSTEM":"UTC","FILE":"3120015","LAUNCH_DATE":"2021-04-07","APOAPSIS":"547.924","MEAN_MOTION_DOT":"0.00000625","REF_FRAME":"TEME","ELEMENT_SET_NO":"999","ARG_OF_PERICENTER":"96.4618","CENTER_NAME":"EARTH","MEAN_ELEMENT_THEORY":"SGP4","INCLINATION":"53.0564","ECCENTRICITY":"0.00009880","MEAN_MOTION":"15.06391365"},{"SITE":"AFETR","BSTAR":"0.00006656300000","SEMIMAJOR_AXIS":"6925.348","RA_OF_ASC_NODE":"277.7261","PERIAPSIS":"546.818","OBJECT_ID":"2021-027AR","TLE_LINE2":"2 48131  53.0551 277.7261 0000570  92.0051 268.1003 15.06400286 26728","RCS_SIZE":"LARGE","OBJECT_NAME":"STARLINK-2473","DECAY_DATE":null,"GP_ID":"185056917","MEAN_MOTION_DDOT":"0.0000000000000","MEAN_ANOMALY":"268.1003","OBJECT_TYPE":"PAYLOAD","NORAD_CAT_ID":"48131","TLE_LINE1":"1 48131U 21027AR  21262.74197194  .00000710  00000-0  66563-4 0  9992","COUNTRY_CODE":"US","REV_AT_EPOCH":"2672","EPHEMERIS_TYPE":"0","CLASSIFICATION_TYPE":"U","TIME_SYSTEM":"UTC","EPOCH":"2021-09-19T17:48:26.375616","PERIOD":"95.592","MEAN_MOTION_DOT":"0.00000710","REF_FRAME":"TEME","APOAPSIS":"547.607","LAUNCH_DATE":"2021-04-07","FILE":"3120378","CENTER_NAME":"EARTH","ARG_OF_PERICENTER":"92.0051","ELEMENT_SET_NO":"999","MEAN_MOTION":"15.06400286","ECCENTRICITY":"0.00005700","MEAN_ELEMENT_THEORY":"SGP4","INCLINATION":"53.0551"}];
